[{"OBJECT_NAME":"STARLINK-5937","OBJECT_ID":"2023-083AY","EPOCH":"2026-03-09T22:52:08.997024","MEAN_MOTION":15.0333741,"ECCENTRICITY":0.00020736,"INCLINATION":43.0002,"RA_OF_ASC_NODE":67.0252,"ARG_OF_PERICENTER":253.4788,"MEAN_ANOMALY":106.5827,"EPHEMERIS_TYPE":0,"CLASSIFICATION_TYPE":"U","NORAD_CAT_ID":56922,"ELEMENT_SET_NO":999,"REV_AT_EPOCH":15186,"BSTAR":0.0082673876,"MEAN_MOTION_DOT":0.00115779,"MEAN_MOTION_DDOT":0},{"OBJECT_NAME":"FENGYUN 1C DEB","OBJECT_ID":"1999-025AMC","EPOCH":"2026-03-09T19:39:36.291456","MEAN_MOTION":15.06799557,"ECCENTRICITY":0.00299661,"INCLINATION":98.9468,"RA_OF_ASC_NODE":22.995,"ARG_OF_PERICENTER":242.9892,"MEAN_ANOMALY":116.8272,"EPHEMERIS_TYPE":0,"CLASSIFICATION_TYPE":"U","NORAD_CAT_ID":30597,"ELEMENT_SET_NO":999,"REV_AT_EPOCH":99841,"BSTAR":0.005730905,"MEAN_MOTION_DOT":0.00087128,"MEAN_MOTION_DDOT":0}]
